STARLINK-3115
1 29447C 21104AR  21325.18927980 -.00815656  00000-0 -26830-2 0  3250
2 29447  53.2176  95.6603 0033194  64.0219 161.7734 15.89602009    15
